ONEWEB-0389             
1 50469U 21132A   25068.62123654  .00000083  00000+0  18047-3 0  9996
2 50469  87.9015  98.4169 0001606 102.7467 257.3844 13.17648998156903
ONEWEB-0390             
1 50470U 21132B   25068.62293308  .00000129  00000+0  29788-3 0  9997
2 50470  87.9014  98.4235 0001779  86.3244 273.8091 13.17648687156901
ONEWEB-0391             
1 50471U 21132C   25068.62461346  .00000098  00000+0  22002-3 0  9994
2 50471  87.9024  98.4281 0001090 110.5775 249.5473 13.17647742156904
ONEWEB-0392             
1 50472U 21132D   25068.50311801  .00000091  00000+0  20107-3 0  9999
2 50472  87.9010  98.4144 0001563 104.0350 256.0955 13.17647744156922
ONEWEB-0393             
1 50473U 21132E   25068.62813212  .00000080  00000+0  17339-3 0  9997
2 50473  87.9019  98.3927 0001746  97.2138 262.9192 13.17648991156935
ONEWEB-0394             
1 50474U 21132F   25068.50606711  .00000181  00000+0  42692-3 0  9991
2 50474  87.9049  67.8367 0001840  92.0100 268.1243 13.18686009160354
ONEWEB-0395             
1 50475U 21132G   25068.67229267 -.00000201  00000+0 -60187-3 0  9991
2 50475  87.8827 113.6922 0001601  97.0467 263.0843 13.11412583154834
ONEWEB-0396             
1 50476U 21132H   25068.49974345  .00000007  00000+0 -15638-4 0  9991
2 50476  87.9054  67.8472 0001865  92.9286 267.2060 13.18684438160395
ONEWEB-0397             
1 50477U 21132J   25068.89335644 -.00000040  00000+0 -13457-3 0  9993
2 50477  87.9054  67.7700 0002025  94.9597 265.1766 13.18684556160420
ONEWEB-0398             
1 50478U 21132K   25068.64009450  .00000460  00000+0  12606-2 0  9998
2 50478  87.8823 113.6673 0001735  84.3279 275.8047 13.11418467154726
ONEWEB-0399             
1 50479U 21132L   25068.62652028 -.00000122  00000+0 -37922-3 0  9998
2 50479  87.8827 113.6913 0001996 108.9349 251.1995 13.11419504154719
ONEWEB-0400             
1 50480U 21132M   25068.94868254  .00000025  00000+0  29538-4 0  9990
2 50480  87.9050  67.7525 0001865  81.1588 278.9755 13.18683998160423
ONEWEB-0401             
1 50481U 21132N   25068.91548427 -.00000043  00000+0 -14154-3 0  9994
2 50481  87.9049  67.7527 0002139  93.5893 266.5484 13.18686864160422
ONEWEB-0402             
1 50482U 21132P   25068.50132624 -.00000039  00000+0 -13193-3 0  9995
2 50482  87.9049  67.8332 0002440  99.4272 260.7136 13.18684964161676
ONEWEB-0403             
1 50483U 21132Q   25068.90442004 -.00000017  00000+0 -75819-4 0  9996
2 50483  87.9052  67.7655 0001804  88.9771 271.1568 13.18685165161688
ONEWEB-0404             
1 50484U 21132R   25068.53155951 -.00000532  00000+0 -15376-2 0  9990
2 50484  87.8832 113.7031 0001647 108.0629 252.0679 13.11414448154797
ONEWEB-0405             
1 50485U 21132S   25068.92023002  .00000016  00000+0  88767-5 0  9997
2 50485  87.9053  67.7522 0002075  97.3128 262.8240 13.18684836160806
ONEWEB-0406             
1 50486U 21132T   25068.90916237 -.00000022  00000+0 -89592-4 0  9992
2 50486  87.9055  67.7722 0001336  81.5693 278.5591 13.18684946161729
ONEWEB-0407             
1 50487U 21132U   25068.52345501  .00000116  00000+0  26047-3 0  9998
2 50487  87.9049  67.8388 0001977  94.1738 265.9620 13.18685480160325
ONEWEB-0409             
1 50488U 21132V   25068.60617637 -.00000519  00000+0 -15001-2 0  9996
2 50488  87.8824 113.6621 0001581  98.4504 261.6803 13.11416170154695
ONEWEB-0412             
1 50489U 21132W   25068.89177561 -.00000061  00000+0 -18869-3 0  9993
2 50489  87.9055  67.7776 0002249  96.8374 263.3014 13.18684902160464
ONEWEB-0413             
1 50490U 21132X   25068.51713389  .00000125  00000+0  28326-3 0  9996
2 50490  87.9054  67.8643 0002260  93.5600 266.5791 13.18685329160357
ONEWEB-0414             
1 50491U 21132Y   25068.50290732  .00000100  00000+0  22195-3 0  9999
2 50491  87.9048  67.8351 0001992  97.1002 263.0356 13.18684649160380
ONEWEB-0417             
1 50492U 21132Z   25068.51080796  .00000128  00000+0  29299-3 0  9990
2 50492  87.9057  67.8550 0001706  90.2121 269.9206 13.18685293160364
ONEWEB-0418             
1 50493U 21132AA  25068.52015807  .00000128  00000+0  29311-3 0  9998
2 50493  87.9053  67.8460 0001495  92.0222 268.1081 13.18684809160429
ONEWEB-0419             
1 50494U 21132AB  25068.91706731 -.00000028  00000+0 -10469-3 0  9990
2 50494  87.9049  67.7741 0001665  82.1436 277.9885 13.18684432160390
ONEWEB-0420             
1 50495U 21132AC  25068.50448018  .00000187  00000+0  44225-3 0  9998
2 50495  87.9050  67.8656 0002189  87.6025 272.5358 13.18687279160337
ONEWEB-0421             
1 50496U 21132AD  25068.42228760  .00000073  00000+0  15208-3 0  9993
2 50496  87.9057  67.8682 0002045  98.0241 262.1124 13.18684478160368
ONEWEB-0424             
1 50497U 21132AE  25068.91231862 -.00000014  00000+0 -69561-4 0  9994
2 50497  87.9053  67.7637 0001706  74.9341 285.1980 13.18685906161735
ONEWEB-0426             
1 50498U 21132AF  25068.49500011  .00000105  00000+0  23439-3 0  9995
2 50498  87.9048  67.8537 0001589 108.4445 251.6860 13.18685296160340
ONEWEB-0427             
1 50499U 21132AG  25068.91074224 -.00000017  00000+0 -75379-4 0  9990
2 50499  87.9050  67.7516 0001685  89.6983 270.4342 13.18685168161729
ONEWEB-0429             
1 50500U 21132AH  25068.89807839 -.00000047  00000+0 -15305-3 0  9991
2 50500  87.9056  67.7763 0002055  86.2452 273.8915 13.18688568160390
ONEWEB-0430             
1 50501U 21132AJ  25068.50764992  .00000151  00000+0  34926-3 0  9996
2 50501  87.9052  67.8501 0001973  78.3298 281.8056 13.18685012160381
ONEWEB-0432             
1 50502U 21132AK  25068.91864620 -.00000007  00000+0 -49948-4 0  9994
2 50502  87.9052  67.7577 0001061  69.0029 291.1217 13.18683991160399
ONEWEB-0440             
1 50503U 21132AL  25068.90600140 -.00000096  00000+0 -27744-3 0  9996
2 50503  87.9054  67.7571 0002364  91.9089 268.2314 13.18685516161673
ONEWEB-0450             
1 50504U 21132AM  25068.89981835 -.00000026  00000+0 -99071-4 0  9994
2 50504  87.9055  67.7869 0002227  82.2913 277.8472 13.18684694160410
ONEWEB-0410             
1 51622U 22012A   25068.63979304  .00000046  00000+0  86122-4 0  9997
2 51622  87.9011  98.3856 0001377 141.7844 218.3386 13.17648617152520
ONEWEB-0411             
1 51623U 22012B   25068.68305996  .00000556  00000+0  15561-2 0  9996
2 51623  87.8864 128.8585 0001886  82.6620 277.4722 13.10373768148456
ONEWEB-0415             
1 51624U 22012C   25068.67973912  .00000401  00000+0  11116-2 0  9996
2 51624  87.8859 128.8689 0001900  91.0882 269.0463 13.10375225148456
ONEWEB-0416             
1 51625U 22012D   25068.69136080  .00000657  00000+0  18448-2 0  9994
2 51625  87.8862 128.8770 0001913 100.3456 259.7887 13.10373010148497
ONEWEB-0422             
1 51626U 22012E   25068.57398753  .00000047  00000+0  88062-4 0  9993
2 51626  87.9012  98.4041 0002711  91.7292 268.4150 13.17648811152628
ONEWEB-0423             
1 51627U 22012F   25068.64318143  .00000076  00000+0  16346-3 0  9994
2 51627  87.9015  98.3953 0002045  97.4629 262.6735 13.17647644152527
ONEWEB-0425             
1 51628U 22012G   25068.70131995  .00000403  00000+0  11170-2 0  9993
2 51628  87.8856 128.8495 0001910 112.5117 247.6213 13.10370284148492
ONEWEB-0428             
1 51629U 22012H   25068.68139771  .00000495  00000+0  13810-2 0  9995
2 51629  87.8864 128.8731 0002136  96.1564 263.9807 13.10376420148453
ONEWEB-0431             
1 51630U 22012J   25068.72771899 -.00000617  00000+0 -18030-2 0  9992
2 51630  87.8856 128.8434 0002180  84.6333 275.5043 13.10371994148510
ONEWEB-0434             
1 51631U 22012K   25068.70463444  .00000316  00000+0  86933-3 0  9997
2 51631  87.8858 128.8808 0001946 122.0495 238.0822 13.10370655148492
ONEWEB-0435             
1 51632U 22012L   25068.71292921 -.00000164  00000+0 -50586-3 0  9997
2 51632  87.8859 128.8712 0002426  98.6370 261.5033 13.10370175148483
ONEWEB-0436             
1 51633U 22012M   25068.55881040 -.00000148  00000+0 -41419-3 0  9993
2 51633  87.9012  98.4056 0002186  89.2866 270.8516 13.17647645152499
ONEWEB-0438             
1 51634U 22012N   25068.69634070  .00000583  00000+0  16324-2 0  9995
2 51634  87.8861 128.8754 0001895 106.9222 253.2113 13.10371625148514
ONEWEB-0439             
1 51635U 22012P   25068.69966095  .00000468  00000+0  13047-2 0  9992
2 51635  87.8861 128.8617 0002042 101.6612 258.4745 13.10371036148494
ONEWEB-0442             
1 51636U 22012Q   25068.62714759  .00000114  00000+0  26028-3 0  9996
2 51636  87.9012  98.4355 0001362 106.6378 253.4903 13.17649120152498
ONEWEB-0443             
1 51637U 22012R   25068.57062049  .00000002  00000+0 -26891-4 0  9995
2 51637  87.9015  98.4595 0002049 104.5990 255.5369 13.17647969153824
ONEWEB-0444             
1 51638U 22012S   25068.68970177  .00000681  00000+0  19154-2 0  9992
2 51638  87.8857 128.8718 0002144 101.5209 258.6159 13.10373717148509
ONEWEB-0445             
1 51639U 22012T   25068.71126927 -.00000073  00000+0 -24433-3 0  9997
2 51639  87.8849 128.8273 0001781 100.8275 259.3053 13.10370129148514
ONEWEB-0446             
1 51640U 22012U   25068.68804237  .00000658  00000+0  18476-2 0  9998
2 51640  87.8863 128.8806 0001752  95.4209 264.7118 13.10373215148496
ONEWEB-0448             
1 51641U 22012V   25068.69302174  .00000661  00000+0  18558-2 0  9998
2 51641  87.8862 128.8795 0002011 104.1935 255.9416 13.10372384148462
ONEWEB-0449             
1 51642U 22012W   25068.69800092  .00000577  00000+0  16154-2 0  9997
2 51642  87.8854 128.8589 0001837 108.6841 251.4485 13.10371363148479
ONEWEB-0451             
1 51643U 22012X   25068.63137030 -.00000127  00000+0 -35953-3 0  9999
2 51643  87.9011  98.3835 0001867 100.3004 259.8338 13.17646084152481
ONEWEB-0452             
1 51644U 22012Y   25068.62968032  .00000104  00000+0  23498-3 0  9997
2 51644  87.9014  98.4394 0001993 104.6856 255.4497 13.17647659152496
